1 44918U 20001E   23141.73050678  .00021509  00000-0  14557-2 0  9997
2 44918  53.0540 258.8869 0001108  75.6388 284.4724 15.06470603186400
1 44918U 20001E   23142.32763276 -.00000519  00000-0 -15961-4 0  9990
2 44918  53.0538 256.2061 0000700  55.4292 304.6763 15.06415059186491
1 44918U 20001E   23142.59303096  .00012661  00000-0  86818-3 0  9996
2 44918  53.0537 255.0158 0001167  89.5829 270.5294 15.06364778186532
1 44918U 20001E   23142.72572879  .00026006  00000-0  17602-2 0  9990
2 44918  53.0537 254.4202 0001152  85.9552 274.1569 15.06361297186552
1 44918U 20001E   23142.72572879  .00026006  00000-0  17602-2 0  9990
2 44918  53.0537 254.4202 0001152  85.9552 274.1569 15.06361297186552
1 44918U 20001E   23143.58824745  .00023089  00000-0  15639-2 0  9993
2 44918  53.0535 250.5487 0001124  85.9551 274.1566 15.06398861186688
1 44918U 20001E   23143.98633373  .00010416  00000-0  71733-3 0  9990
2 44918  53.0542 248.7614 0001357  92.1511 267.9633 15.06390120186743
1 44918U 20001E   23144.25172282  .00005910  00000-0  41539-3 0  9992
2 44918  53.0548 247.5733 0001572 107.5768 252.5392 15.06393372186780
1 44918U 20001E   23144.25172282  .00005910  00000-0  41539-3 0  9992
2 44918  53.0548 247.5733 0001572 107.5768 252.5392 15.06393372186780
1 44918U 20001E   23145.57867756  .00018132  00000-0  12329-2 0  9999
2 44918  53.0530 241.6136 0001080  94.9354 265.1758 15.06404320186981
1 44918U 20001E   23145.57867756  .00018132  00000-0  12329-2 0  9999
2 44918  53.0530 241.6136 0001080  94.9354 265.1758 15.06404320186981
1 44918U 20001E   23146.50753915  .00006080  00000-0  42680-3 0  9997
2 44918  53.0535 237.4444 0001486  82.2879 277.8279 15.06394118187121
1 44918U 20001E   23146.57388436  .00005414  00000-0  38212-3 0  9992
2 44918  53.0535 237.1464 0001225  68.0796 292.0323 15.06396412187130
1 44918U 20001E   23146.97195785  .00004854  00000-0  34443-3 0  9998
2 44918  53.0533 235.3586 0001273  85.7352 274.3782 15.06409582187191
1 44918U 20001E   23147.50272290  .00006192  00000-0  43398-3 0  9991
2 44918  53.0528 232.9752 0001271  88.0104 272.1031 15.06421444187275
1 44918U 20001E   23147.50272290  .00006192  00000-0  43398-3 0  9991
2 44918  53.0528 232.9752 0001271  88.0104 272.1031 15.06421444187275
1 44918U 20001E   23147.96714863  .00002935  00000-0  21577-3 0  9994
2 44918  53.0517 230.8922 0001082  82.3707 277.7405 15.06413581187342
1 44918U 20001E   23148.23253949  .00001901  00000-0  14647-3 0  9990
2 44918  53.0536 229.6980 0001795  95.7936 264.3258 15.06410500187386
1 44918U 20001E   23148.43157945 -.00000965  00000-0 -45862-4 0  9996
2 44918  53.0538 228.8035 0001553 110.5283 249.5873 15.06403650187413
1 44918U 20001E   23148.49792983 -.00000747  00000-0 -31272-4 0  9997
2 44918  53.0548 228.5074 0001511  99.1844 260.9316 15.06400959187422
1 44918U 20001E   23149.42677018  .00003800  00000-0  27370-3 0  9996
2 44918  53.0538 224.3359 0001411 112.2834 247.8304 15.06418006187564
1 44918U 20001E   23149.49311594  .00004476  00000-0  31901-3 0  9992
2 44918  53.0540 224.0392 0001340 105.8726 254.2411 15.06420937187578
1 44918U 20001E   23149.89120186  .00001852  00000-0  14319-3 0  9990
2 44918  53.0539 222.2517 0001461 103.5097 256.6055 15.06404471187637
1 44918U 20001E   23149.89120186  .00001852  00000-0  14319-3 0  9990
2 44918  53.0539 222.2517 0001461 103.5097 256.6055 15.06404471187637
1 44918U 20001E   23150.35563362 -.00001039  00000-0 -50839-4 0  9997
2 44918  53.0541 220.1655 0001621 123.1466 236.9679 15.06395313187701
1 44918U 20001E   23150.42198036 -.00001918  00000-0 -10989-3 0  9994
2 44918  53.0543 219.8680 0001481 121.8044 238.3089 15.06393625187713
1 44918U 20001E   23150.88641308  .00000301  00000-0  39134-4 0  9996
2 44918  53.0548 217.7872 0001498 117.2335 242.8807 15.06389680187789
1 44918U 20001E   23151.41718507  .00004340  00000-0  31007-3 0  9999
2 44918  53.0551 215.4036 0001480 116.0948 244.0193 15.06402410187866
1 44918U 20001E   23151.48353000  .00003140  00000-0  22959-3 0  9992
2 44918  53.0533 215.1047 0001196 113.9294 246.1820 15.06405701187876
1 44918U 20001E   23151.61622500  .00005889  00000-0  41386-3 0  9998
2 44918  53.0533 214.5091 0001180 113.0423 247.0690 15.06405244187895
1 44918U 20001E   23152.14700571  .00003348  00000-0  24356-3 0  9998
2 44918  53.0531 212.1249 0001627 120.8435 239.2714 15.06396100187976
1 44918U 20001E   23152.41239246  .00002683  00000-0  19895-3 0  9997
2 44918  53.0527 210.9342 0001500 126.7019 233.4108 15.06397428188017
1 44918U 20001E   23152.87682027  .00004295  00000-0  30700-3 0  9995
2 44918  53.0522 208.8481 0001212 102.6863 257.4262 15.06403046188080
1 44918U 20001E   23153.40759069  .00007892  00000-0  54792-3 0  9999
2 44918  53.0530 206.4688 0001175  92.7777 267.3346 15.06413233188164
1 44918U 20001E   23153.40759069  .00007892  00000-0  54792-3 0  9999
2 44918  53.0530 206.4688 0001175  92.7777 267.3346 15.06413233188164
1 44918U 20001E   23154.13741058  .00001729  00000-0  13493-3 0  9995
2 44918  53.0530 203.1913 0001475  91.4757 268.6401 15.06399803188270
1 44918U 20001E   23154.40279989 -.00001232  00000-0 -63862-4 0  9991
2 44918  53.0528 201.9970 0001203 118.5284 241.5826 15.06392122188314
1 44918U 20001E   23154.40279989 -.00001232  00000-0 -63862-4 0  9991
2 44918  53.0528 201.9970 0001203 118.5284 241.5826 15.06392122188314
1 44918U 20001E   23155.39800484 -.00000088  00000-0  12998-4 0  9991
2 44918  53.0525 197.5301 0001170 111.3686 248.7428 15.06397631188462
1 44918U 20001E   23156.12782546  .00003618  00000-0  26167-3 0  9994
2 44918  53.0523 194.2554 0001093  83.2205 276.8908 15.06393905188579
1 44918U 20001E   23156.39321156  .00004000  00000-0  28730-3 0  9993
2 44918  53.0524 193.0639 0001113  76.5262 283.5850 15.06399072188619
1 44918U 20001E   23156.79128914  .00004427  00000-0  31585-3 0  9999
2 44918  53.0523 191.2775 0001127  73.0851 287.0261 15.06406038188672
1 44918U 20001E   23157.12301900  .00005135  00000-0  36321-3 0  9995
2 44918  53.0520 189.7881 0001112  74.4198 285.6914 15.06413559188723
1 44918U 20001E   23157.32205690  .00005556  00000-0  39138-3 0  9992
2 44918  53.0520 188.8947 0001110  73.8209 286.2902 15.06417185188756
1 44918U 20001E   23157.38840262  .00005783  00000-0  40661-3 0  9993
2 44918  53.0520 188.5969 0001097  74.2812 285.8298 15.06418534188769
1 44918U 20001E   23157.98552426 -.00000565  00000-0 -19024-4 0  9996
2 44918  53.0528 185.9237 0001282 114.7141 245.3982 15.06405917188859
1 44918U 20001E   23158.44996041 -.00001571  00000-0 -86620-4 0  9997
2 44918  53.0521 183.8326 0001138  77.4125 282.6991 15.06393915188921
1 44918U 20001E   23158.44996041 -.00001571  00000-0 -86620-4 0  9997
2 44918  53.0521 183.8326 0001138  77.4125 282.6991 15.06393915188921
1 44918U 20001E   23158.78169486 -.00001488  00000-0 -81030-4 0  9996
2 44918  53.0522 182.3435 0001132  79.0502 281.0614 15.06394377188971
1 44918U 20001E   23159.37881826 -.00000882  00000-0 -40354-4 0  9992
2 44918  53.0535 179.6614 0001238  78.7660 281.3468 15.06399677189060
1 44918U 20001E   23160.04228749  .00001790  00000-0  13905-3 0  9995
2 44918  53.0532 176.6826 0001207  82.1985 277.9141 15.06392157189160
1 44918U 20001E   23160.30767464  .00001935  00000-0  14878-3 0  9997
2 44918  53.0532 175.4913 0001209  82.4945 277.6181 15.06394209189201
1 44918U 20001E   23161.43556552  .00001752  00000-0  13646-3 0  9995
2 44918  53.0533 170.4278 0001214  82.0187 278.0940 15.06403970189373
1 44918U 20001E   23161.43556552  .00001752  00000-0  13646-3 0  9995
2 44918  53.0533 170.4278 0001214  82.0187 278.0940 15.06403970189373
1 44918U 20001E   23162.03269125  .00000604  00000-0  59418-4 0  9992
2 44918  53.0531 167.7469 0001240  83.0274 277.0856 15.06399599189465
1 44918U 20001E   23162.43077692 -.00000163  00000-0  79674-5 0  9990
2 44918  53.0534 165.9601 0001230  81.7280 278.3848 15.06394670189524
1 44918U 20001E   23162.69616279 -.00000086  00000-0  13133-4 0  9999
2 44918  53.0537 164.7688 0001247  82.3515 277.7616 15.06396983189564
1 44918U 20001E   23163.29328157  .00000064  00000-0  23166-4 0  9993
2 44918  53.0536 162.0882 0001261  82.0390 278.0742 15.06400627189659
1 44918U 20001E   23163.29328157  .00000064  00000-0  23166-4 0  9993
2 44918  53.0536 162.0882 0001261  82.0390 278.0742 15.06400627189659
1 44918U 20001E   23163.69136492 -.00000135  00000-0  98345-5 0  9998
2 44918  53.0534 160.3013 0001242  81.7191 278.3939 15.06397512189714
1 44918U 20001E   23164.35483658  .00000854  00000-0  76246-4 0  9993
2 44918  53.0536 157.3231 0001271  83.0971 277.0163 15.06392362189811
1 44918U 20001E   23164.35483658  .00000854  00000-0  76246-4 0  9993
2 44918  53.0536 157.3231 0001271  83.0971 277.0163 15.06392362189811
1 44918U 20001E   23165.35003351  .00001133  00000-0  94929-4 0  9991
2 44918  53.0537 152.8555 0001316  82.9156 277.1983 15.06401952189967
1 44918U 20001E   23165.35003351  .00001133  00000-0  94929-4 0  9991
2 44918  53.0537 152.8555 0001316  82.9156 277.1983 15.06401952189967
1 44918U 20001E   23165.68176981  .00000926  00000-0  81021-4 0  9995
2 44918  53.0538 151.3667 0001313  85.7701 274.3438 15.06398944190018
1 44918U 20001E   23165.94716190  .00000332  00000-0  41153-4 0  9999
2 44918  53.0535 150.1745 0001312  89.9620 270.1519 15.06393027190059
1 44918U 20001E   23166.21254833  .00000258  00000-0  36192-4 0  9995
2 44918  53.0536 148.9831 0001302  90.4251 269.6887 15.06395460190095
1 44918U 20001E   23166.67697298  .00000650  00000-0  62524-4 0  9995
2 44918  53.0538 146.8983 0001312  89.6263 270.4876 15.06399564190161
1 44918U 20001E   23167.34043194  .00001192  00000-0  98899-4 0  9996
2 44918  53.0537 143.9196 0001304  90.8383 269.2756 15.06409122190268
1 44918U 20001E   23167.34043194  .00001192  00000-0  98899-4 0  9996
2 44918  53.0537 143.9196 0001304  90.8383 269.2756 15.06409122190268
1 44918U 20001E   23167.93756539  .00000425  00000-0  47435-4 0  9993
2 44918  53.0553 141.2407 0001300  81.2553 278.8583 15.06392210190354
